[{"OBJECT_NAME":"STARLINK-2095","OBJECT_ID":"2021-012BM","EPOCH":"2026-03-10T00:00:02.999808","MEAN_MOTION":15.74200805,"ECCENTRICITY":0.00059989,"INCLINATION":53.0265,"RA_OF_ASC_NODE":345.7098,"ARG_OF_PERICENTER":141.0946,"MEAN_ANOMALY":123.1256,"EPHEMERIS_TYPE":0,"CLASSIFICATION_TYPE":"U","NORAD_CAT_ID":47679,"ELEMENT_SET_NO":999,"REV_AT_EPOCH":596,"BSTAR":0.0014953733,"MEAN_MOTION_DOT":0.00224612,"MEAN_MOTION_DDOT":0},{"OBJECT_NAME":"STARLINK-11515 [DTC]","OBJECT_ID":"2025-006C","EPOCH":"2026-03-09T12:41:44.250432","MEAN_MOTION":15.70874459,"ECCENTRICITY":0.0001336,"INCLINATION":42.999,"RA_OF_ASC_NODE":141.1773,"ARG_OF_PERICENTER":300.0472,"MEAN_ANOMALY":60.0263,"EPHEMERIS_TYPE":0,"CLASSIFICATION_TYPE":"U","NORAD_CAT_ID":62556,"ELEMENT_SET_NO":999,"REV_AT_EPOCH":6657,"BSTAR":0.0021914683,"MEAN_MOTION_DOT":0.00291248,"MEAN_MOTION_DDOT":0}]
